[
    {
        "CCSDS_OMM_VERS": "3.0",
        "COMMENT": "GENERATED VIA SPACE-TRACK.ORG API",
        "CREATION_DATE": "2024-10-22T06:46:17",
        "ORIGINATOR": "18 SPCS",
        "OBJECT_NAME": "ENVISAT",
        "OBJECT_ID": "2002-009A",
        "CENTER_NAME": "EARTH",
        "REF_FRAME": "TEME",
        "TIME_SYSTEM": "UTC",
        "MEAN_ELEMENT_THEORY": "SGP4",
        "EPOCH": "2024-10-21T22:47:10.715712",
        "MEAN_MOTION": "14.38721584",
        "ECCENTRICITY": "0.00013730",
        "INCLINATION": "98.3002",
        "RA_OF_ASC_NODE": "252.7376",
        "ARG_OF_PERICENTER": "86.5624",
        "MEAN_ANOMALY": "314.4048",
        "EPHEMERIS_TYPE": "0",
        "CLASSIFICATION_TYPE": "U",
        "NORAD_CAT_ID": "27386",
        "ELEMENT_SET_NO": "999",
        "REV_AT_EPOCH": "18680",
        "BSTAR": "0.00015795000000",
        "MEAN_MOTION_DOT": "0.00000443",
        "MEAN_MOTION_DDOT": "0.0000000000000",
        "SEMIMAJOR_AXIS": "7140.862",
        "PERIOD": "100.089",
        "APOAPSIS": "763.708",
        "PERIAPSIS": "761.747",
        "OBJECT_TYPE": "PAYLOAD",
        "RCS_SIZE": "LARGE",
        "COUNTRY_CODE": "ESA",
        "LAUNCH_DATE": "2002-03-01",
        "SITE": "FRGUI",
        "DECAY_DATE": null,
        "FILE": "4530683",
        "GP_ID": "271237801",
        "TLE_LINE0": "0 ENVISAT",
        "TLE_LINE1": "1 27386U 02009A   24295.94942958  .00000443  00000-0  15795-3 0  9990",
        "TLE_LINE2": "2 27386  98.3002 252.7376 0001373  86.5624 314.4048 14.38721584186807"
    },
    {
        "CCSDS_OMM_VERS": "3.0",
        "COMMENT": "GENERATED VIA SPACE-TRACK.ORG API",
        "CREATION_DATE": "2024-10-22T06:36:16",
        "ORIGINATOR": "18 SPCS",
        "OBJECT_NAME": "ARIANE 5 R/B",
        "OBJECT_ID": "2002-009B",
        "CENTER_NAME": "EARTH",
        "REF_FRAME": "TEME",
        "TIME_SYSTEM": "UTC",
        "MEAN_ELEMENT_THEORY": "SGP4",
        "EPOCH": "2024-10-21T23:58:53.056416",
        "MEAN_MOTION": "14.36513085",
        "ECCENTRICITY": "0.00333050",
        "INCLINATION": "98.8091",
        "RA_OF_ASC_NODE": "288.8888",
        "ARG_OF_PERICENTER": "105.8234",
        "MEAN_ANOMALY": "254.6628",
        "EPHEMERIS_TYPE": "0",
        "CLASSIFICATION_TYPE": "U",
        "NORAD_CAT_ID": "27387",
        "ELEMENT_SET_NO": "999",
        "REV_AT_EPOCH": "18673",
        "BSTAR": "0.00013012000000",
        "MEAN_MOTION_DOT": "0.00000338",
        "MEAN_MOTION_DDOT": "0.0000000000000",
        "SEMIMAJOR_AXIS": "7148.180",
        "PERIOD": "100.243",
        "APOAPSIS": "793.852",
        "PERIAPSIS": "746.238",
        "OBJECT_TYPE": "ROCKET BODY",
        "RCS_SIZE": "LARGE",
        "COUNTRY_CODE": "FR",
        "LAUNCH_DATE": "2002-03-01",
        "SITE": "FRGUI",
        "DECAY_DATE": null,
        "FILE": "4530653",
        "GP_ID": "271237044",
        "TLE_LINE0": "0 ARIANE 5 R/B",
        "TLE_LINE1": "1 27387U 02009B   24295.99922519  .00000338  00000-0  13012-3 0  9990",
        "TLE_LINE2": "2 27387  98.8091 288.8888 0033305 105.8234 254.6628 14.36513085186735"
    },
    {
        "CCSDS_OMM_VERS": "3.0",
        "COMMENT": "GENERATED VIA SPACE-TRACK.ORG API",
        "CREATION_DATE": "2024-10-21T17:49:28",
        "ORIGINATOR": "18 SPCS",
        "OBJECT_NAME": "ADEOS 2",
        "OBJECT_ID": "2002-056A",
        "CENTER_NAME": "EARTH",
        "REF_FRAME": "TEME",
        "TIME_SYSTEM": "UTC",
        "MEAN_ELEMENT_THEORY": "SGP4",
        "EPOCH": "2024-10-21T07:51:08.494560",
        "MEAN_MOTION": "14.28629036",
        "ECCENTRICITY": "0.00020280",
        "INCLINATION": "98.7056",
        "RA_OF_ASC_NODE": "241.5867",
        "ARG_OF_PERICENTER": "58.5791",
        "MEAN_ANOMALY": "301.5589",
        "EPHEMERIS_TYPE": "0",
        "CLASSIFICATION_TYPE": "U",
        "NORAD_CAT_ID": "27597",
        "ELEMENT_SET_NO": "999",
        "REV_AT_EPOCH": "13826",
        "BSTAR": "0.00036865000000",
        "MEAN_MOTION_DOT": "0.00000881",
        "MEAN_MOTION_DDOT": "0.0000000000000",
        "SEMIMAJOR_AXIS": "7174.454",
        "PERIOD": "100.796",
        "APOAPSIS": "797.774",
        "PERIAPSIS": "794.864",
        "OBJECT_TYPE": "PAYLOAD",
        "RCS_SIZE": "LARGE",
        "COUNTRY_CODE": "JPN",
        "LAUNCH_DATE": "2002-12-14",
        "SITE": "TNSTA",
        "DECAY_DATE": null,
        "FILE": "4530563",
        "GP_ID": "271183496",
        "TLE_LINE0": "0 ADEOS 2",
        "TLE_LINE1": "1 27597U 02056A   24295.32718165  .00000881  00000-0  36865-3 0  9996",
        "TLE_LINE2": "2 27597  98.7056 241.5867 0002028  58.5791 301.5589 14.28629036138269"
    },
    {
        "CCSDS_OMM_VERS": "3.0",
        "COMMENT": "GENERATED VIA SPACE-TRACK.ORG API",
        "CREATION_DATE": "2024-10-22T04:17:00",
        "ORIGINATOR": "18 SPCS",
        "OBJECT_NAME": "H-2A R/B",
        "OBJECT_ID": "2002-056E",
        "CENTER_NAME": "EARTH",
        "REF_FRAME": "TEME",
        "TIME_SYSTEM": "UTC",
        "MEAN_ELEMENT_THEORY": "SGP4",
        "EPOCH": "2024-10-21T21:14:12.888960",
        "MEAN_MOTION": "14.33112262",
        "ECCENTRICITY": "0.00698730",
        "INCLINATION": "98.2476",
        "RA_OF_ASC_NODE": "266.7888",
        "ARG_OF_PERICENTER": "222.9434",
        "MEAN_ANOMALY": "166.2267",
        "EPHEMERIS_TYPE": "0",
        "CLASSIFICATION_TYPE": "U",
        "NORAD_CAT_ID": "27601",
        "ELEMENT_SET_NO": "999",
        "REV_AT_EPOCH": "14193",
        "BSTAR": "0.00030151000000",
        "MEAN_MOTION_DOT": "0.00000808",
        "MEAN_MOTION_DDOT": "0.0000000000000",
        "SEMIMAJOR_AXIS": "7159.484",
        "PERIOD": "100.481",
        "APOAPSIS": "831.374",
        "PERIAPSIS": "731.323",
        "OBJECT_TYPE": "ROCKET BODY",
        "RCS_SIZE": "LARGE",
        "COUNTRY_CODE": "JPN",
        "LAUNCH_DATE": "2002-12-14",
        "SITE": "TNSTA",
        "DECAY_DATE": null,
        "FILE": "4530606",
        "GP_ID": "271213748",
        "TLE_LINE0": "0 H-2A R/B",
        "TLE_LINE1": "1 27601U 02056E   24295.88487140  .00000808  00000-0  30151-3 0  9990",
        "TLE_LINE2": "2 27601  98.2476 266.7888 0069873 222.9434 166.2267 14.33112262141931"
    },
    {
        "CCSDS_OMM_VERS": "3.0",
        "COMMENT": "GENERATED VIA SPACE-TRACK.ORG API",
        "CREATION_DATE": "2024-10-21T17:49:28",
        "ORIGINATOR": "18 SPCS",
        "OBJECT_NAME": "COSMOS 2406",
        "OBJECT_ID": "2004-021A",
        "CENTER_NAME": "EARTH",
        "REF_FRAME": "TEME",
        "TIME_SYSTEM": "UTC",
        "MEAN_ELEMENT_THEORY": "SGP4",
        "EPOCH": "2024-10-21T08:55:19.148160",
        "MEAN_MOTION": "14.12029450",
        "ECCENTRICITY": "0.00109030",
        "INCLINATION": "71.0074",
        "RA_OF_ASC_NODE": "281.2222",
        "ARG_OF_PERICENTER": "333.4211",
        "MEAN_ANOMALY": "26.6349",
        "EPHEMERIS_TYPE": "0",
        "CLASSIFICATION_TYPE": "U",
        "NORAD_CAT_ID": "28352",
        "ELEMENT_SET_NO": "999",
        "REV_AT_EPOCH": "4947",
        "BSTAR": "0.00021779000000",
        "MEAN_MOTION_DOT": "0.00000352",
        "MEAN_MOTION_DDOT": "0.0000000000000",
        "SEMIMAJOR_AXIS": "7230.572",
        "PERIOD": "101.981",
        "APOAPSIS": "860.321",
        "PERIAPSIS": "844.554",
        "OBJECT_TYPE": "PAYLOAD",
        "RCS_SIZE": "LARGE",
        "COUNTRY_CODE": "CIS",
        "LAUNCH_DATE": "2004-06-10",
        "SITE": "TTMTR",
        "DECAY_DATE": null,
        "FILE": "4530563",
        "GP_ID": "271183675",
        "TLE_LINE0": "0 COSMOS 2406",
        "TLE_LINE1": "1 28352U 04021A   24295.37174940  .00000352  00000-0  21779-3 0  9993",
        "TLE_LINE2": "2 28352  71.0074 281.2222 0010903 333.4211  26.6349 14.12029450 49472"
    },
    {
        "CCSDS_OMM_VERS": "3.0",
        "COMMENT": "GENERATED VIA SPACE-TRACK.ORG API",
        "CREATION_DATE": "2024-10-21T17:49:28",
        "ORIGINATOR": "18 SPCS",
        "OBJECT_NAME": "SL-16 R/B",
        "OBJECT_ID": "2004-021B",
        "CENTER_NAME": "EARTH",
        "REF_FRAME": "TEME",
        "TIME_SYSTEM": "UTC",
        "MEAN_ELEMENT_THEORY": "SGP4",
        "EPOCH": "2024-10-21T04:30:03.082752",
        "MEAN_MOTION": "14.14469908",
        "ECCENTRICITY": "0.00028060",
        "INCLINATION": "71.0004",
        "RA_OF_ASC_NODE": "211.1366",
        "ARG_OF_PERICENTER": "83.4165",
        "MEAN_ANOMALY": "276.7277",
        "EPHEMERIS_TYPE": "0",
        "CLASSIFICATION_TYPE": "U",
        "NORAD_CAT_ID": "28353",
        "ELEMENT_SET_NO": "999",
        "REV_AT_EPOCH": "5149",
        "BSTAR": "0.00003867000000",
        "MEAN_MOTION_DOT": "0.00000027",
        "MEAN_MOTION_DDOT": "0.0000000000000",
        "SEMIMAJOR_AXIS": "7222.253",
        "PERIOD": "101.805",
        "APOAPSIS": "846.145",
        "PERIAPSIS": "842.091",
        "OBJECT_TYPE": "ROCKET BODY",
        "RCS_SIZE": "LARGE",
        "COUNTRY_CODE": "CIS",
        "LAUNCH_DATE": "2004-06-10",
        "SITE": "TTMTR",
        "DECAY_DATE": null,
        "FILE": "4530563",
        "GP_ID": "271184175",
        "TLE_LINE0": "0 SL-16 R/B",
        "TLE_LINE1": "1 28353U 04021B   24295.18753568  .00000027  00000-0  38670-4 0  9990",
        "TLE_LINE2": "2 28353  71.0004 211.1366 0002806  83.4165 276.7277 14.14469908 51491"
    }
]